0 ISIS 1 DEB
1 36301U 69009D   13281.51295488  .00004146  00000-0  28618-2 0  8221
2 36301 088.4171 293.8870 1637525 191.3109 308.1638 11.44916352169207
0 ISIS 1 DEB
1 36301U 69009D   13282.30054899  .00007935  00000-0  54803-2 0  8233
2 36301 088.4174 293.7961 1637517 189.6815 314.3992 11.44930354169294
0 ISIS 1 DEB
1 36301U 69009D   13283.26293762  .00006325  00000-0  43661-2 0  8246
2 36301 088.4175 293.6856 1637506 187.6883 321.1370 11.44939480169406
0 ISIS 1 DEB
1 36301U 69009D   13285.18641422  .00004763  00000-0  32838-2 0  8258
2 36301 088.4167 293.4649 1637513 183.7099 329.3460 11.44955885169620
0 ISIS 1 DEB
1 36301U 69009D   13287.54149686  .00007345  00000-0  50677-2 0  8266
2 36301 088.4145 293.1943 1637365 178.8335 316.7169 11.44978113169886
0 ISIS 1 DEB
1 36301U 69009D   13289.46972594  .00006824  00000-0  47059-2 0  8273
2 36301 088.4118 292.9738 1637302 174.8437 344.8137 11.44999903170110
0 ISIS 1 DEB
1 36301U 69009D   13291.47236928  .00006085  00000-0  42005-2 0  8287
2 36301 088.4109 292.7424 1636960 170.6937 319.7945 11.45019190170332
0 ISIS 1 DEB
1 36301U 69009D   13293.48274103  .00005759  00000-0  39781-2 0  8292
2 36301 088.4110 292.5099 1636705 166.5288 326.7691 11.45037754170567
0 ISIS 1 DEB
1 36301U 69009D   13295.49258707  .00006698  00000-0  46276-2 0  8309
2 36301 088.4103 292.2791 1636608 162.3671 331.7002 11.45055609170793
